BEIJING 1               
1 28890U 05043A   24080.54563189  .00000757  00000+0  15976-3 0  9993
2 28890  98.1855 204.1267 0014243 327.8592  32.1740 14.62187145980943
HJ-1A                   
1 33320U 08041A   24080.57769969  .00002799  00000+0  38060-3 0  9992
2 33320  97.6355  91.9862 0019016 303.0174  56.9211 14.79419266837155
HJ-1B                   
1 33321U 08041B   24080.53635168  .00001920  00000+0  25814-3 0  9990
2 33321  97.6322  96.4804 0038237 348.1150  11.9156 14.79872636837171
YAOGAN 4                
1 33446U 08061A   24080.36345972  .00002228  00000+0  30577-3 0  9996
2 33446  97.8742  13.9912 0014288 209.7544 150.2856 14.79314367824420
DEIMOS-1                
1 35681U 09041A   24080.55993427  .00001167  00000+0  18859-3 0  9993
2 35681  97.6796 267.2466 0001041  17.4811 342.6433 14.73084718786267
UK-DMC 2                
1 35683U 09041C   24080.56423864  .00001808  00000+0  28900-3 0  9999
2 35683  97.7667 231.9469 0001319  81.0707 279.0651 14.72967533785917
RISAT 1                 
1 38248U 12017A   24080.57285584  .00012076  00000+0  53835-3 0  9996
2 38248  97.5314  97.7894 0003469 160.6579 199.4789 15.21560303656095
DMC3-FM1                
1 40715U 15032A   24080.53915609  .00001258  00000+0  15956-3 0  9994
2 40715  97.7638 322.0019 0004813 211.4259 148.6668 14.83413147468436
DMC3-FM2                
1 40716U 15032B   24080.56229731  .00001268  00000+0  16081-3 0  9993
2 40716  97.7690 323.0354 0006603 220.0061 140.0667 14.83416225468439
DMC3-FM3                
1 40717U 15032C   24080.58441584  .00001038  00000+0  13284-3 0  9995
2 40717  97.7736 324.2853 0008154 217.7160 142.3483 14.83398248468440
